CCSDS_OMM_VERS = 2.0
CREATION_DATE  = 
ORIGINATOR     = 

OBJECT_NAME    = STARLINK-36771
OBJECT_ID      = 2026-036AA
CENTER_NAME    = EARTH
REF_FRAME      = TEME
TIME_SYSTEM    = UTC
MEAN_ELEMENT_THEORY = SGP/SGP4

EPOCH          = 2026-03-15T14:00:01.999872
MEAN_MOTION    = 15.62322946
ECCENTRICITY   = .00015605
INCLINATION    = 42.9995
RA_OF_ASC_NODE = 213.8606
ARG_OF_PERICENTER = 270.9416
MEAN_ANOMALY   = 20.8363

EPHEMERIS_TYPE = 0
CLASSIFICATION_TYPE = U
NORAD_CAT_ID   = 67928
ELEMENT_SET_NO = 999
REV_AT_EPOCH   = 459
BSTAR          = -.24262373E-1
MEAN_MOTION_DOT = -.194497E-1
MEAN_MOTION_DDOT = 0

CCSDS_OMM_VERS = 2.0
CREATION_DATE  = 
ORIGINATOR     = 

OBJECT_NAME    = STARLINK-36809
OBJECT_ID      = 2026-036AB
CENTER_NAME    = EARTH
REF_FRAME      = TEME
TIME_SYSTEM    = UTC
MEAN_ELEMENT_THEORY = SGP/SGP4

EPOCH          = 2026-03-15T14:00:01.999872
MEAN_MOTION    = 15.62350143
ECCENTRICITY   = .00016123
INCLINATION    = 42.9993
RA_OF_ASC_NODE = 213.8378
ARG_OF_PERICENTER = 269.8460
MEAN_ANOMALY   = 30.8866

EPHEMERIS_TYPE = 0
CLASSIFICATION_TYPE = U
NORAD_CAT_ID   = 67929
ELEMENT_SET_NO = 999
REV_AT_EPOCH   = 459
BSTAR          = -.2428161E-1
MEAN_MOTION_DOT = -.1948207E-1
MEAN_MOTION_DDOT = 0

CCSDS_OMM_VERS = 2.0
CREATION_DATE  = 
ORIGINATOR     = 

OBJECT_NAME    = STARLINK-36865
OBJECT_ID      = 2026-036AC
CENTER_NAME    = EARTH
REF_FRAME      = TEME
TIME_SYSTEM    = UTC
MEAN_ELEMENT_THEORY = SGP/SGP4

EPOCH          = 2026-03-15T14:00:01.999872
MEAN_MOTION    = 15.66960761
ECCENTRICITY   = .00015989
INCLINATION    = 42.9999
RA_OF_ASC_NODE = 213.6456
ARG_OF_PERICENTER = 279.0810
MEAN_ANOMALY   = 99.1323

EPHEMERIS_TYPE = 0
CLASSIFICATION_TYPE = U
NORAD_CAT_ID   = 67930
ELEMENT_SET_NO = 999
REV_AT_EPOCH   = 459
BSTAR          = -.20359881E-1
MEAN_MOTION_DOT = -.1964422E-1
MEAN_MOTION_DDOT = 0

CCSDS_OMM_VERS = 2.0
CREATION_DATE  = 
ORIGINATOR     = 

OBJECT_NAME    = STARLINK-36781
OBJECT_ID      = 2026-036AD
CENTER_NAME    = EARTH
REF_FRAME      = TEME
TIME_SYSTEM    = UTC
MEAN_ELEMENT_THEORY = SGP/SGP4

EPOCH          = 2026-03-15T14:00:01.999872
MEAN_MOTION    = 15.66362156
ECCENTRICITY   = .00015644
INCLINATION    = 42.9996
RA_OF_ASC_NODE = 213.6761
ARG_OF_PERICENTER = 276.3034
MEAN_ANOMALY   = 89.7704

EPHEMERIS_TYPE = 0
CLASSIFICATION_TYPE = U
NORAD_CAT_ID   = 67931
ELEMENT_SET_NO = 999
REV_AT_EPOCH   = 459
BSTAR          = -.2081865E-1
MEAN_MOTION_DOT = -.1960549E-1
MEAN_MOTION_DDOT = 0

CCSDS_OMM_VERS = 2.0
CREATION_DATE  = 
ORIGINATOR     = 

OBJECT_NAME    = STARLINK-36301
OBJECT_ID      = 2026-037A
CENTER_NAME    = EARTH
REF_FRAME      = TEME
TIME_SYSTEM    = UTC
MEAN_ELEMENT_THEORY = SGP/SGP4

EPOCH          = 2026-03-15T13:50:18.892320
MEAN_MOTION    = 15.82051411
ECCENTRICITY   = .00014202
INCLINATION    = 42.9974
RA_OF_ASC_NODE = 162.5002
ARG_OF_PERICENTER = 249.7495
MEAN_ANOMALY   = 110.3224

EPHEMERIS_TYPE = 0
CLASSIFICATION_TYPE = U
NORAD_CAT_ID   = 67932
ELEMENT_SET_NO = 999
REV_AT_EPOCH   = 418
BSTAR          = .88065238E-3
MEAN_MOTION_DOT = .189323E-2
MEAN_MOTION_DDOT = 0

CCSDS_OMM_VERS = 2.0
CREATION_DATE  = 
ORIGINATOR     = 

OBJECT_NAME    = STARLINK-36852
OBJECT_ID      = 2026-037B
CENTER_NAME    = EARTH
REF_FRAME      = TEME
TIME_SYSTEM    = UTC
MEAN_ELEMENT_THEORY = SGP/SGP4

EPOCH          = 2026-03-15T14:00:01.999872
MEAN_MOTION    = 15.74712362
ECCENTRICITY   = .00015591
INCLINATION    = 42.9996
RA_OF_ASC_NODE = 162.5081
ARG_OF_PERICENTER = 282.5244
MEAN_ANOMALY   = 97.3954

EPHEMERIS_TYPE = 0
CLASSIFICATION_TYPE = U
NORAD_CAT_ID   = 67933
ELEMENT_SET_NO = 999
REV_AT_EPOCH   = 414
BSTAR          = -.14447172E-1
MEAN_MOTION_DOT = -.190216E-1
MEAN_MOTION_DDOT = 0

CCSDS_OMM_VERS = 2.0
CREATION_DATE  = 
ORIGINATOR     = 

OBJECT_NAME    = STARLINK-36861
OBJECT_ID      = 2026-037C
CENTER_NAME    = EARTH
REF_FRAME      = TEME
TIME_SYSTEM    = UTC
MEAN_ELEMENT_THEORY = SGP/SGP4

EPOCH          = 2026-03-15T15:19:03.998208
MEAN_MOTION    = 15.82059930
ECCENTRICITY   = .00017224
INCLINATION    = 42.9976
RA_OF_ASC_NODE = 162.1003
ARG_OF_PERICENTER = 258.2302
MEAN_ANOMALY   = 101.8377

EPHEMERIS_TYPE = 0
CLASSIFICATION_TYPE = U
NORAD_CAT_ID   = 67934
ELEMENT_SET_NO = 999
REV_AT_EPOCH   = 419
BSTAR          = .98089933E-3
MEAN_MOTION_DOT = .211569E-2
MEAN_MOTION_DDOT = 0

CCSDS_OMM_VERS = 2.0
CREATION_DATE  = 
ORIGINATOR     = 

OBJECT_NAME    = STARLINK-36860
OBJECT_ID      = 2026-037D
CENTER_NAME    = EARTH
REF_FRAME      = TEME
TIME_SYSTEM    = UTC
MEAN_ELEMENT_THEORY = SGP/SGP4

EPOCH          = 2026-03-15T13:47:00.336480
MEAN_MOTION    = 15.82799134
ECCENTRICITY   = .00321903
INCLINATION    = 42.9982
RA_OF_ASC_NODE = 162.4816
ARG_OF_PERICENTER = 359.1238
MEAN_ANOMALY   = 0.9573

EPHEMERIS_TYPE = 0
CLASSIFICATION_TYPE = U
NORAD_CAT_ID   = 67935
ELEMENT_SET_NO = 999
REV_AT_EPOCH   = 418
BSTAR          = .37332782E-2
MEAN_MOTION_DOT = .936049E-2
MEAN_MOTION_DDOT = 0

CCSDS_OMM_VERS = 2.0
CREATION_DATE  = 
ORIGINATOR     = 

OBJECT_NAME    = STARLINK-36848
OBJECT_ID      = 2026-037E
CENTER_NAME    = EARTH
REF_FRAME      = TEME
TIME_SYSTEM    = UTC
MEAN_ELEMENT_THEORY = SGP/SGP4

EPOCH          = 2026-03-14T16:32:09.365856
MEAN_MOTION    = 15.81862945
ECCENTRICITY   = .00019559
INCLINATION    = 42.9972
RA_OF_ASC_NODE = 167.8849
ARG_OF_PERICENTER = 0.4471
MEAN_ANOMALY   = 359.6402

EPHEMERIS_TYPE = 0
CLASSIFICATION_TYPE = U
NORAD_CAT_ID   = 67936
ELEMENT_SET_NO = 999
REV_AT_EPOCH   = 404
BSTAR          = -.69877644E-3
MEAN_MOTION_DOT = -.144226E-2
MEAN_MOTION_DDOT = 0

CCSDS_OMM_VERS = 2.0
CREATION_DATE  = 
ORIGINATOR     = 

OBJECT_NAME    = STARLINK-36370
OBJECT_ID      = 2026-037F
CENTER_NAME    = EARTH
REF_FRAME      = TEME
TIME_SYSTEM    = UTC
MEAN_ELEMENT_THEORY = SGP/SGP4

EPOCH          = 2026-03-15T15:17:01.916736
MEAN_MOTION    = 15.81339131
ECCENTRICITY   = .00013318
INCLINATION    = 42.9979
RA_OF_ASC_NODE = 162.0893
ARG_OF_PERICENTER = 245.5295
MEAN_ANOMALY   = 114.5438

EPHEMERIS_TYPE = 0
CLASSIFICATION_TYPE = U
NORAD_CAT_ID   = 67937
ELEMENT_SET_NO = 999
REV_AT_EPOCH   = 419
BSTAR          = -.31656823E-2
MEAN_MOTION_DOT = -.603215E-2
MEAN_MOTION_DDOT = 0

CCSDS_OMM_VERS = 2.0
CREATION_DATE  = 
ORIGINATOR     = 

OBJECT_NAME    = STARLINK-36371
OBJECT_ID      = 2026-037G
CENTER_NAME    = EARTH
REF_FRAME      = TEME
TIME_SYSTEM    = UTC
MEAN_ELEMENT_THEORY = SGP/SGP4

EPOCH          = 2026-03-15T15:14:44.944224
MEAN_MOTION    = 15.82091870
ECCENTRICITY   = .00015789
INCLINATION    = 42.9982
RA_OF_ASC_NODE = 162.0759
ARG_OF_PERICENTER = 249.4286
MEAN_ANOMALY   = 110.6416

EPHEMERIS_TYPE = 0
CLASSIFICATION_TYPE = U
NORAD_CAT_ID   = 67938
ELEMENT_SET_NO = 999
REV_AT_EPOCH   = 419
BSTAR          = .12845706E-2
MEAN_MOTION_DOT = .279869E-2
MEAN_MOTION_DDOT = 0

CCSDS_OMM_VERS = 2.0
CREATION_DATE  = 
ORIGINATOR     = 

OBJECT_NAME    = STARLINK-36246
OBJECT_ID      = 2026-037H
CENTER_NAME    = EARTH
REF_FRAME      = TEME
TIME_SYSTEM    = UTC
MEAN_ELEMENT_THEORY = SGP/SGP4

EPOCH          = 2026-03-15T14:00:01.999872
MEAN_MOTION    = 15.78600754
ECCENTRICITY   = .00014114
INCLINATION    = 42.9992
RA_OF_ASC_NODE = 162.3982
ARG_OF_PERICENTER = 278.7779
MEAN_ANOMALY   = 144.7109

EPHEMERIS_TYPE = 0
CLASSIFICATION_TYPE = U
NORAD_CAT_ID   = 67939
ELEMENT_SET_NO = 999
REV_AT_EPOCH   = 405
BSTAR          = -.12198367E-1
MEAN_MOTION_DOT = -.1911227E-1
MEAN_MOTION_DDOT = 0

